"CCSDS_OMM_VERS","COMMENT","CREATION_DATE","ORIGINATOR","OBJECT_NAME","OBJECT_ID","CENTER_NAME","REF_FRAME","TIME_SYSTEM","MEAN_ELEMENT_THEORY","EPOCH","MEAN_MOTION","ECCENTRICITY","INCLINATION","RA_OF_ASC_NODE","ARG_OF_PERICENTER","MEAN_ANOMALY","EPHEMERIS_TYPE","CLASSIFICATION_TYPE","NORAD_CAT_ID","ELEMENT_SET_NO","REV_AT_EPOCH","BSTAR","MEAN_MOTION_DOT","MEAN_MOTION_DDOT","SEMIMAJOR_AXIS","PERIOD","APOAPSIS","PERIAPSIS","OBJECT_TYPE","RCS_SIZE","COUNTRY_CODE","LAUNCH_DATE","SITE","DECAY_DATE","FILE","GP_ID","TLE_LINE0","TLE_LINE1","TLE_LINE2"
"2.0","GENERATED VIA SPACE-TRACK.ORG API","2022-06-26T22:16:12","18 SPCS","CARTOSAT 3","2019-081A","EARTH","TEME","UTC","SGP4","2022-06-26T19:12:04.270752","15.19364558","0.00137330","97.3972","239.1916","175.5745","312.7746","0","U","44804","999","14305","0.00012389000000","0.00002557","0.0000000000000","6885.897","94.776","517.218","498.305","PAYLOAD","LARGE","IND","2019-11-27","SRI",null,"3503193","206898580","0 CARTOSAT 3","1 44804U 19081A   22177.80004943  .00002557  00000-0  12389-3 0  9991","2 44804  97.3972 239.1916 0013733 175.5745 312.7746 15.19364558143051"
"2.0","GENERATED VIA SPACE-TRACK.ORG API","2022-06-27T04:08:52","18 SPCS","CARTOSAT 3","2019-081A","EARTH","TEME","UTC","SGP4","2022-06-26T22:33:27.366048","15.19365019","0.00138390","97.3972","239.3286","175.0320","357.7711","0","U","44804","999","14307","0.00012210000000","0.00002520","0.0000000000000","6885.895","94.776","517.290","498.231","PAYLOAD","LARGE","IND","2019-11-27","SRI",null,"3503441","206924075","0 CARTOSAT 3","1 44804U 19081A   22177.93990007  .00002520  00000-0  12210-3 0  9993","2 44804  97.3972 239.3286 0013839 175.0320 357.7711 15.19365019143070"
"2.0","GENERATED VIA SPACE-TRACK.ORG API","2022-06-27T06:36:12","18 SPCS","CARTOSAT 3","2019-081A","EARTH","TEME","UTC","SGP4","2022-06-27T05:49:05.233152","15.19366630","0.00138510","97.3973","239.6250","173.9869","212.4677","0","U","44804","999","14312","0.00012208000000","0.00002519","0.0000000000000","6885.891","94.776","517.293","498.218","PAYLOAD","LARGE","IND","2019-11-27","SRI",null,"3503485","206930583","0 CARTOSAT 3","1 44804U 19081A   22178.24242168  .00002519  00000-0  12208-3 0  9991","2 44804  97.3973 239.6250 0013851 173.9869 212.4677 15.19366630143128"
"2.0","GENERATED VIA SPACE-TRACK.ORG API","2022-06-27T14:16:12","18 SPCS","CARTOSAT 3","2019-081A","EARTH","TEME","UTC","SGP4","2022-06-27T09:08:15.053856","15.19367367","0.00138430","97.3972","239.7605","173.5094","248.9689","0","U","44804","999","14314","0.00012212000000","0.00002520","0.0000000000000","6885.888","94.776","517.286","498.221","PAYLOAD","LARGE","IND","2019-11-27","SRI",null,"3503689","206934569","0 CARTOSAT 3","1 44804U 19081A   22178.38072979  .00002520  00000-0  12212-3 0  9994","2 44804  97.3972 239.7605 0013843 173.5094 248.9689 15.19367367143146"
"2.0","GENERATED VIA SPACE-TRACK.ORG API","2022-06-27T18:35:31","18 SPCS","CARTOSAT 3","2019-081A","EARTH","TEME","UTC","SGP4","2022-06-27T14:04:52.863744","15.19367929","0.00138670","97.3970","239.9624","172.6748","295.8075","0","U","44804","999","14317","0.00011865000000","0.00002447","0.0000000000000","6885.887","94.776","517.300","498.203","PAYLOAD","LARGE","IND","2019-11-27","SRI",null,"3503902","206958538","0 CARTOSAT 3","1 44804U 19081A   22178.58672296  .00002447  00000-0  11865-3 0  9995","2 44804  97.3970 239.9624 0013867 172.6748 295.8075 15.19367929143176"
"2.0","GENERATED VIA SPACE-TRACK.ORG API","2022-06-27T21:56:11","18 SPCS","CARTOSAT 3","2019-081A","EARTH","TEME","UTC","SGP4","2022-06-27T20:20:04.426080","15.19165551","0.00135260","97.3976","240.2059","173.9217","278.4945","0","U","44804","999","14321","-0.00381320000000","-0.00079522","0.0000000000000","6886.498","94.789","517.678","499.049","PAYLOAD","LARGE","IND","2019-11-27","SRI",null,"3503933","206965333","0 CARTOSAT 3","1 44804U 19081A   22178.84727345 -.00079522  00000-0 -38132-2 0  9995","2 44804  97.3976 240.2059 0013526 173.9217 278.4945 15.19165551143211"
"2.0","GENERATED VIA SPACE-TRACK.ORG API","2022-06-28T11:26:12","18 SPCS","CARTOSAT 3","2019-081A","EARTH","TEME","UTC","SGP4","2022-06-28T10:35:53.281824","15.19208043","0.00137300","97.3972","240.7979","171.7448","289.0026","0","U","44804","999","14330","0.00018562000000","0.00003848","0.0000000000000","6886.370","94.786","517.690","498.780","PAYLOAD","LARGE","IND","2019-11-27","SRI",null,"3504477","207002424","0 CARTOSAT 3","1 44804U 19081A   22179.44158891  .00003848  00000-0  18562-3 0  9998","2 44804  97.3972 240.7979 0013730 171.7448 289.0026 15.19208043143304"
"2.0","GENERATED VIA SPACE-TRACK.ORG API","2022-06-28T18:19:31","18 SPCS","CARTOSAT 3","2019-081A","EARTH","TEME","UTC","SGP4","2022-06-28T13:54:24.022944","15.19210151","0.00137510","97.3973","240.9325","171.3866","322.8349","0","U","44804","999","14332","0.00022355000000","0.00004649","0.0000000000000","6886.363","94.786","517.698","498.759","PAYLOAD","LARGE","IND","2019-11-27","SRI",null,"3504789","207029149","0 CARTOSAT 3","1 44804U 19081A   22179.57944471  .00004649  00000-0  22355-3 0  9994","2 44804  97.3973 240.9325 0013751 171.3866 322.8349 15.19210151143324"
"2.0","GENERATED VIA SPACE-TRACK.ORG API","2022-06-29T02:39:59","18 SPCS","CARTOSAT 3","2019-081A","EARTH","TEME","UTC","SGP4","2022-06-28T16:59:25.493280","15.19204113","0.00136270","97.3970","241.0583","170.7666","305.7240","0","U","44804","999","14334","-0.00001270800000","-0.00000336","0.0000000000000","6886.382","94.786","517.631","498.863","PAYLOAD","LARGE","IND","2019-11-27","SRI",null,"3504942","207058006","0 CARTOSAT 3","1 44804U 19081A   22179.70793395 -.00000336  00000-0 -12708-4 0  9999","2 44804  97.3970 241.0583 0013627 170.7666 305.7240 15.19204113143345"
"2.0","GENERATED VIA SPACE-TRACK.ORG API","2022-06-29T06:26:11","18 SPCS","CARTOSAT 3","2019-081A","EARTH","TEME","UTC","SGP4","2022-06-29T02:22:53.072832","15.19203541","0.00137530","97.3976","241.4419","169.8445","285.3038","0","U","44804","999","14340","-0.00000205150000","-0.00000111","0.0000000000000","6886.383","94.787","517.719","498.778","PAYLOAD","LARGE","IND","2019-11-27","SRI",null,"3505186","207063256","0 CARTOSAT 3","1 44804U 19081A   22180.09922538 -.00000111  00000-0 -20515-5 0  9993","2 44804  97.3976 241.4419 0013753 169.8445 285.3038 15.19203541143406"
"2.0","GENERATED VIA SPACE-TRACK.ORG API","2022-07-01T18:26:51","18 SPCS","CARTOSAT 3","2019-081A","EARTH","TEME","UTC","SGP4","2022-07-01T12:56:03.735168","15.19211222","0.00139430","97.3965","243.8334","161.9426","307.8111","0","U","44804","999","14377","0.00005624600000","0.00001119","0.0000000000000","6886.360","94.786","517.827","498.624","PAYLOAD","LARGE","IND","2019-11-27","SRI",null,"3506285","207206307","0 CARTOSAT 3","1 44804U 19081A   22182.53893212  .00001119  00000-0  56246-4 0  9996","2 44804  97.3965 243.8334 0013943 161.9426 307.8111 15.19211222143776"
"2.0","GENERATED VIA SPACE-TRACK.ORG API","2022-07-01T22:26:12","18 SPCS","CARTOSAT 3","2019-081A","EARTH","TEME","UTC","SGP4","2022-07-01T19:21:07.698240","15.19211965","0.00139610","97.3964","244.0945","161.0686","330.2439","0","U","44804","999","14381","0.00005691500000","0.00001133","0.0000000000000","6886.358","94.786","517.837","498.609","PAYLOAD","LARGE","IND","2019-11-27","SRI",null,"3506304","207213124","0 CARTOSAT 3","1 44804U 19081A   22182.80633910  .00001133  00000-0  56915-4 0  9992","2 44804  97.3964 244.0945 0013961 161.0686 330.2439 15.19211965143817"
"2.0","GENERATED VIA SPACE-TRACK.ORG API","2022-07-02T07:29:33","18 SPCS","CARTOSAT 3","2019-081A","EARTH","TEME","UTC","SGP4","2022-07-01T22:41:48.650208","15.19212304","0.00140200","97.3966","244.2313","160.5924","12.4322","0","U","44804","999","14383","0.00005713900000","0.00001138","0.0000000000000","6886.357","94.786","517.877","498.567","PAYLOAD","LARGE","IND","2019-11-27","SRI",null,"3506502","207237272","0 CARTOSAT 3","1 44804U 19081A   22182.94570197  .00001138  00000-0  57139-4 0  9998","2 44804  97.3966 244.2313 0014020 160.5924  12.4322 15.19212304143836"
"2.0","GENERATED VIA SPACE-TRACK.ORG API","2022-07-02T14:16:13","18 SPCS","CARTOSAT 3","2019-081A","EARTH","TEME","UTC","SGP4","2022-07-02T11:00:25.529184","15.19214343","0.00139720","97.3964","244.7335","158.9600","297.5592","0","U","44804","999","14391","0.00006297400000","0.00001261","0.0000000000000","6886.351","94.786","517.837","498.594","PAYLOAD","LARGE","IND","2019-11-27","SRI",null,"3506541","207242675","0 CARTOSAT 3","1 44804U 19081A   22183.45862881  .00001261  00000-0  62974-4 0  9999","2 44804  97.3964 244.7335 0013972 158.9600 297.5592 15.19214343143919"
"2.0","GENERATED VIA SPACE-TRACK.ORG API","2022-07-02T17:34:58","18 SPCS","CARTOSAT 3","2019-081A","EARTH","TEME","UTC","SGP4","2022-07-02T14:13:13.055808","15.19215283","0.00139370","97.3963","244.8646","158.4436","309.8420","0","U","44804","999","14393","0.00006730900000","0.00001352","0.0000000000000","6886.348","94.786","517.810","498.615","PAYLOAD","LARGE","IND","2019-11-27","SRI",null,"3506647","207264636","0 CARTOSAT 3","1 44804U 19081A   22183.59251222  .00001352  00000-0  67309-4 0  9993","2 44804  97.3963 244.8646 0013937 158.4436 309.8420 15.19215283143930"
"2.0","GENERATED VIA SPACE-TRACK.ORG API","2022-07-02T22:56:12","18 SPCS","CARTOSAT 3","2019-081A","EARTH","TEME","UTC","SGP4","2022-07-02T22:02:12.429024","15.19216251","0.00139540","97.3964","245.1836","157.3001","291.0892","0","U","44804","999","14398","0.00006764700000","0.00001360","0.0000000000000","6886.345","94.786","517.819","498.601","PAYLOAD","LARGE","IND","2019-11-27","SRI",null,"3506651","207270640","0 CARTOSAT 3","1 44804U 19081A   22183.91819941  .00001360  00000-0  67647-4 0  9991","2 44804  97.3964 245.1836 0013954 157.3001 291.0892 15.19216251143987"
